#dP2019  8 19  0  0  0.00000000      96 __u+U ITR00 FIT  IAC
## 2067  86400.00000000   900.00000000 58714 0.0000000000000
+  113   C01C02C03C04C05C06C07C08C09C10C11C12C13C14C16C19C20
+        C21C22C23C24C25C26C27C28C29C30C32C33C34E01E02E03E04
+        E05E07E08E09E11E12E13E14E15E18E19E21E24E25E26E27E30
+        E31E33E36G01G02G03G04G05G06G07G08G09G10G11G12G13G14
+        G15G16G17G18G19G20G21G22G23G24G25G26G27G28G29G30G31
+        G32J01J02J03J07R01R02R03R04R05R06R07R08R09R11R12R13
+        R14R15R16R17R18R19R20R21R22R23R24  0  0  0  0  0  0
++        13 13 13 13 13 14  8  8  8  8  8  8  8  8  9  8  8
++         8  8  8  9  8  9  8  8  8  8  8 10  9  6  5  4  5
++         5  5  4  5  5  5  5  5  5  5  5  5  4  5  5  5  5
++         5  5  5  3  3  3  4  3  3  3  3  3  3  3  3  3  3
++         3  3  3  3  3  3  3  3  3  3  3  3  3  3  3  3  3
++         3  8  8  8 13  6  5  5  5  5  8  5  5  5  5  5  6
++         5  5  6  5  5  6  6  5  5  5  6  0  0  0  0  0  0
%c M  cc GPS ccc cccc cccc cccc cccc ccccc ccccc ccccc ccccc
%c cc cc ccc ccc cccc cccc cccc cccc ccccc ccccc ccccc ccccc
%f  0.0000000  0.000000000  0.00000000000  0.000000000000000
%f  0.0000000  0.000000000  0.00000000000  0.000000000000000
%i    0    0    0    0      0      0      0      0         0
%i    0    0    0    0      0      0      0      0         0
/* INFORMATION & ANALYSIS CENTER (IAC) OF MCC   (RAPID DATA)
/* S/V CLOCKS ARE ALIGNED TO GPS & GLONASS TIME RESPECTIVELY
/* USING THE BROADCAST EPHEMERIS                            
/* PCV:IGS14_2062 OL/AL:FES2004  NONE     YN ORB:CoN CLK:CoN
*  2019 08 19  1  0  0.00000000
PC01 -32285.422403  27079.149910    879.901885    177.860760
PC02   4327.317954  41953.700042   -274.610190    -37.236875
PC03 -14815.862790  39451.329799    500.481877   -166.361518
PC04 -39578.496818  14481.260797    667.375702    127.530549
PC05  21907.420139  36007.422376   -494.949672   -239.588558
PC06 -10938.072533  21954.687924 -33938.979171    466.189444
PC07 -22234.666702  32811.001099  13827.450328    -74.460423
PC08  -8295.435771  35737.751449  21119.222124    165.697937
PC09   3205.849450  26996.606643 -31907.941430    -99.151736
PC10 -10808.823499  33247.684029  23435.875889    -94.247494
PC11  20511.916709  18827.271763  -2309.337796    205.559216
PC12   -429.131481  18865.980644  20647.061435   -230.859973
PC13    101.044924  41376.658398   8847.113441   -921.869341
PC14   8693.646928  13935.896107 -22492.402882    509.687559
PC16  -9001.826304  22396.978446 -34541.067001   -876.990339
PC19 -25010.933914  -1858.661548  12243.312643    175.995645
PC20 -10419.622747 -13199.787091  22281.922396     17.554076
PC21 -10745.527210  16969.767641 -19345.336403    354.802120
PC22 -25243.057369  10691.006405  -5119.632793     -5.415215
PC23  16479.471648 -15131.921496  16699.793152   -925.787363
PC24   4931.435923  22786.423494  15349.574847   -929.024368
PC25  15389.105540   4768.668799  22787.606174   -319.299902
PC26  -7113.304791  26994.061628   -469.738264    356.892755
PC27   1104.095268 -19118.294449 -20320.372329    174.150165
PC28  16714.283939  -4549.387092 -21882.086689    168.173611
PC29 -22958.122646 -11714.286295  10686.208664    106.320436
PC30 -15813.756682 -21908.411231  -7012.935539    177.854604
PC32  10608.338648 -17080.040972  19370.181174   -906.878383
PC33  25028.638117   1756.681357 -12231.978816   -319.324941
PC34  15900.880905  21904.883355   6744.293387     -8.922271
PE01  19095.171370    -56.451911  22625.586952   -671.511850
PE02 -19117.617612    120.684853 -22593.043229     74.632351
PE03 -28841.215416  -6073.219198   2641.780592   -201.083791
PE04  24488.096268  -7206.561217  14997.287859   -347.331155
PE05 -16326.893705 -15909.197982  18884.125119   -456.299601
PE07  -5647.697320  16384.043243 -23986.219143   -248.971993
PE08 -24323.256853   7382.562744 -15149.253435   6305.506566
PE09   5484.169354 -16298.026261  24103.087233   6343.531755
PE11     19.841999 -25677.815517 -14746.217132   5620.699277
PE12  13593.273676  -9663.718562 -24458.586080   6241.464516
PE13     53.612911  25593.316129  14870.695160    391.630920
PE14  10349.357997 -17939.803957 -25227.679918   -686.708233
PE15 -13288.998914  10061.364161  24461.521855    898.837721
PE18  -5862.620473  13703.919643  17939.449567   -781.429228
PE19  28330.444930   7263.708942  -4555.387645     -4.466303
PE21   5227.370079  17943.792043  22953.651010   -550.189975
PE24  11683.826901 -25320.616549  -9919.466918   5916.855693
PE25  -5137.845909 -18013.220313 -22912.113197   1706.468221
PE26  13276.398184  26221.889840  -3554.866043   4208.071436
PE27 -11711.867547  25376.843560   9746.114424    405.362596
PE30 -21824.443058  17843.505956  -9028.627158   4617.744693
PE31  21742.928860 -17888.822224   9166.853315   -467.488989
PE33  18876.447424  11404.890218 -19742.346399   -469.838467
PE36 -13399.721425 -26164.538261   3463.406460    673.115116
PG01 -13494.858006   9342.654664  20607.440518   -100.957202
PG02  14108.135914  13333.208354 -17581.602981   -285.947402
PG03 -22970.243779  13022.867361   2325.790711     -2.724655
PG04 -22128.819715 -13663.025709  -6970.803220    111.683040
PG05  19104.164069   2811.074698 -18455.779679     -0.720659
PG06   6415.497852  24658.318419  -7406.292644    -29.282962
PG07  -6990.806813  22672.402801 -11153.046125    -88.055798
PG08 -23814.195477  -2734.029150  11689.114404     -3.202283
PG09  -8274.426081  13074.986336 -21629.051435     -9.832264
PG10   2197.982185 -17741.838773  19636.569006    -19.499219
PG11 -15066.962973   5767.973395  20555.945327   -531.404989
PG12  24114.303740  -9452.338315   5260.078078    212.718963
PG13  23102.265345  12666.923656   3496.570561    -48.971637
PG14 -16464.302115 -18454.361673  10258.512132    -65.870173
PG15  24161.163424    455.057497  11176.704723   -293.182669
PG16 -18136.575250  -4804.132976 -19159.509042    -66.210240
PG17   9586.554248  18512.107004  16916.259022    109.362046
PG18 -15178.461869   -215.296513  21296.379106     78.936290
PG19  15005.595876  18564.788364  11298.905781   -279.061176
PG20  10210.411497 -20878.519837  12596.102669    526.521015
PG21   1696.065423 -25591.574257  -6447.040725   -134.012536
PG22 -23204.829247   8419.123762   9907.382086   -745.388717
PG23 -19882.232880   4097.753246 -16986.078313   -171.504827
PG24  14700.858001  -6657.862449  20890.469371     -0.985659
PG25  18265.249536 -17759.392102  -7246.374386     -8.075374
PG26  -9750.657901 -12018.180336 -21607.323242     18.373591
PG27 -23643.798322 -12444.844262   -704.497852    -28.164571
PG28  -3542.456278  17341.550523  20441.395907    764.435819
PG29  11631.652210  -9877.107888 -21778.624649    121.314176
PG30   -231.470571  26438.686118   -803.044257    -22.471954
PG31  -7114.862226 -23607.807440  -9264.045167     16.400767
PG32 -10172.201959 -18155.452509  16636.658018     24.393068
PJ01 -34332.796589  19825.918361  -9582.596629   -257.814096
PJ02 -24826.047206  31871.528504  -7463.723953     -2.600762
PJ03 -26908.441052  22174.846202  28753.575529     -0.740995
PJ07 -25384.015220  33659.825072    -35.690607     -0.033858
PR01  13305.993693   8440.186602 -20062.252020     48.364011
PR02  25281.389302   -470.306813  -3104.435137    383.935083
PR03  19775.955492  -8215.382412  13864.773725      0.229440
PR04   2205.066140 -11101.560558  22874.920953    318.225269
PR05 -15490.780514  -7603.087123  18804.279168     34.096238
PR06 -25382.310159   1420.579069   2240.086237    160.273812
PR07 -19499.987682   8321.230233 -14176.921136    -25.277404
PR08  -3129.710246  11090.517229 -22704.877346     16.099012
PR09 -14064.062150   6647.362532 -20174.625532     86.097227
PR11  -6048.547778  23001.212437   9168.268511    -76.461767
PR12   4550.463170  13640.524487  21105.147111     53.941179
PR13  13228.716769  -4580.614185  21314.930582    -27.304429
PR14  14024.423564 -19313.451135   9046.155339     42.094097
PR15   6731.456120 -23154.735244  -8303.078555    103.585855
PR16  -5104.393719 -13353.962394 -21112.879688      5.895814
PR17   7792.791808  -7385.254262 -23134.452885    253.041578
PR18  -4599.986000 -19495.170563 -15817.968235      4.332573
PR19 -13841.407358 -21420.778900   -126.766332    -49.040993
PR20 -15734.633688  -9889.951083  17492.632895   -387.822825
PR21  -7212.614358   8042.690877  23103.242828    -66.862110
PR22   6435.407588  20517.573926  13626.037186    -33.691789
PR23  15963.836847  19089.963710  -5630.494750    248.192341
PR24  15448.708242   7775.606530 -18776.982328   -183.816530
EOF
